{"type":"FeatureCollection","features":[{"type":"Feature","properties":{"name":"Sikkim study area"},"geometry":{"type":"Polygon","coordinates":[[[88.60953,28.129],[88.60882,28.12197],[88.61761,28.11808],[88.61915,28.09829],[88.60571,28.09818],[88.60165,28.092],[88.60222,28.08929],[88.59062,28.08942],[88.58351,28.08328],[88.5759,28.08445],[88.57047,28.08938],[88.5656,28.09052],[88.55941,28.08436],[88.55265,28.08173],[88.55619,28.07303],[88.54882,28.04874],[88.54874,28.04279],[88.55112,28.03843],[88.54834,28.03602],[88.5428,28.03338],[88.53305,28.03376],[88.52853,28.03787],[88.52269,28.0355],[88.52007,28.04392],[88.50966,28.0416],[88.50547,28.0476],[88.49488,28.05395],[88.48803,28.04454],[88.47976,28.04247],[88.47353,28.03306],[88.46751,28.01687],[88.4562,28.0151],[88.44361,28.00928],[88.43048,28.00833],[88.42491,28.00189],[88.41542,28.00009],[88.41202,27.99634],[88.41063,27.98335],[88.40756,27.98203],[88.403,27.98316],[88.39836,27.97806],[88.38831,27.97898],[88.38682,27.9817],[88.37983,27.98421],[88.37686,27.99019],[88.37169,27.99133],[88.37045,27.98972],[88.36342,27.98897],[88.35215,27.99017],[88.34538,27.98536],[88.33622,27.98437],[88.33059,27.97332],[88.31724,27.97886],[88.31288,27.97159],[88.30642,27.96678],[88.28598,27.96643],[88.281,27.95808],[88.27609,27.95488],[88.26544,27.95715],[88.26106,27.94744],[88.25341,27.94507],[88.25124,27.94238],[88.24165,27.95709],[88.23755,27.97148],[88.22926,27.96695],[88.22462,27.96076],[88.21307,27.96493],[88.20663,27.96146],[88.20437,27.95065],[88.2055,27.94198],[88.20032,27.94202],[88.19607,27.9445],[88.18418,27.94406],[88.17845,27.95007],[88.16994,27.95285],[88.16359,27.95832],[88.15383,27.95786],[88.14506,27.9647],[88.13425,27.95206],[88.12874,27.94967],[88.13509,27.9442],[88.13745,27.93714],[88.13131,27.9334],[88.13033,27.92637],[88.12084,27.92265],[88.11893,27.91563],[88.12281,27.90693],[88.13368,27.89737],[88.13909,27.88974],[88.13444,27.88192],[88.13957,27.87755],[88.149,27.87639],[88.15443,27.87066],[88.16477,27.8684],[88.17324,27.86319],[88.17866,27.85664],[88.19509,27.8546],[88.19749,27.85133],[88.19803,27.84564],[88.20166,27.84263],[88.2019,27.83721],[88.19242,27.83351],[88.18746,27.82542],[88.1734,27.82094],[88.17396,27.81715],[88.17882,27.81575],[88.18547,27.81055],[88.18719,27.80078],[88.19384,27.79639],[88.19683,27.79122],[88.19525,27.78663],[88.18174,27.77592],[88.18137,27.76942],[88.18347,27.7667],[88.18221,27.76292],[88.1773,27.7589],[88.17808,27.74643],[88.1698,27.74136],[88.15823,27.74091],[88.15575,27.73633],[88.15416,27.72957],[88.15494,27.71711],[88.14876,27.7085],[88.14718,27.70309],[88.15376,27.69167],[88.14664,27.67981],[88.14436,27.6652],[88.13728,27.65768],[88.1318,27.65664],[88.11982,27.64564],[88.12036,27.63832],[88.11663,27.63023],[88.11964,27.62777],[88.11626,27.62454],[88.11652,27.61994],[88.11222,27.61537],[88.11369,27.61048],[88.10632,27.60296],[88.08984,27.59605],[88.08152,27.58474],[88.07873,27.57934],[88.08023,27.57771],[88.07532,27.57233],[88.08072,27.56525],[88.07855,27.56066],[88.06877,27.55532],[88.06869,27.54665],[88.06073,27.54049],[88.05825,27.53509],[88.05913,27.53183],[88.06518,27.52962],[88.06607,27.52772],[88.06089,27.52532],[88.05811,27.52074],[88.05776,27.51559],[88.06167,27.51231],[88.05739,27.50937],[88.05492,27.50451],[88.05036,27.50428],[88.04608,27.50106],[88.04391,27.49647],[88.04379,27.48401],[88.04529,27.48211],[88.04373,27.47806],[88.04823,27.47234],[88.05699,27.46685],[88.06027,27.4606],[88.06662,27.45811],[88.06415,27.45353],[88.07227,27.44588],[88.06764,27.43807],[88.07458,27.43341],[88.07273,27.43126],[88.0736,27.42719],[88.06722,27.42561],[88.05804,27.41864],[88.05531,27.41866],[88.05041,27.41328],[88.04944,27.4076],[88.0464,27.40627],[88.04817,27.40084],[88.04539,27.39626],[88.04463,27.38002],[88.04123,27.37354],[88.04151,27.37029],[88.04809,27.36049],[88.05745,27.35636],[88.06068,27.34523],[88.06459,27.34114],[88.06636,27.33598],[88.06301,27.33465],[88.05931,27.32845],[88.05199,27.32444],[88.04922,27.31932],[88.04855,27.31282],[88.0412,27.30448],[88.04056,27.30124],[88.04443,27.29336],[88.04198,27.29148],[88.03835,27.29232],[88.03163,27.28668],[88.03039,27.25013],[88.02735,27.24961],[88.02395,27.24232],[88.02452,27.23798],[88.01905,27.2364],[88.01834,27.22557],[88.01683,27.22585],[88.0119,27.21587],[88.01459,27.21287],[88.02709,27.2209],[88.03466,27.22112],[88.04343,27.21943],[88.05337,27.21312],[88.06459,27.21439],[88.06455,27.20979],[88.07146,27.20405],[88.079,27.20101],[88.07251,27.18698],[88.0785,27.18044],[88.07965,27.17447],[88.07722,27.17286],[88.08683,27.16466],[88.08874,27.14298],[88.09651,27.13263],[88.11102,27.13143],[88.12363,27.12077],[88.13513,27.12068],[88.13598,27.11471],[88.1396,27.11387],[88.14386,27.11573],[88.14472,27.11166],[88.15019,27.11379],[88.15106,27.10972],[88.15681,27.10994],[88.15866,27.11344],[88.16138,27.11261],[88.16321,27.11422],[88.16754,27.12285],[88.17086,27.12255],[88.17212,27.12714],[88.17578,27.12982],[88.17941,27.12979],[88.18065,27.13249],[88.18427,27.13083],[88.18944,27.13323],[88.19215,27.13239],[88.1946,27.13481],[88.20062,27.13151],[88.20609,27.13336],[88.2112,27.12979],[88.21576,27.13165],[88.21935,27.12837],[88.21962,27.12484],[88.22863,27.11908],[88.23317,27.11877],[88.24226,27.1195],[88.24836,27.12432],[88.25897,27.12504],[88.2684,27.12956],[88.27292,27.12816],[88.27417,27.13086],[88.27841,27.13163],[88.28501,27.1267],[88.29168,27.12772],[88.2962,27.12524],[88.3026,27.12924],[88.31012,27.12511],[88.31527,27.12615],[88.31613,27.12181],[88.32274,27.11768],[88.32356,27.11036],[88.3208,27.10714],[88.32198,27.10442],[88.32959,27.10787],[88.33562,27.10673],[88.33808,27.10995],[88.34142,27.11019],[88.34561,27.1069],[88.34946,27.09955],[88.35643,27.10084],[88.35669,27.09705],[88.35849,27.09595],[88.37606,27.0974],[88.38662,27.09513],[88.39897,27.09013],[88.41136,27.08893],[88.42518,27.08148],[88.43362,27.07922],[88.43911,27.08242],[88.45093,27.08392],[88.4607,27.0914],[88.46201,27.09843],[88.4666,27.10244],[88.46796,27.11407],[88.47624,27.12238],[88.4856,27.12093],[88.48626,27.12498],[88.48839,27.12604],[88.49805,27.12378],[88.49996,27.13134],[88.5064,27.13696],[88.51094,27.13691],[88.51311,27.14067],[88.51767,27.14279],[88.51802,27.14604],[88.52078,27.14871],[88.5326,27.14994],[88.53359,27.15535],[88.52786,27.1573],[88.5316,27.16539],[88.52738,27.16679],[88.5211,27.17254],[88.52173,27.17389],[88.53139,27.17216],[88.53512,27.17889],[88.53964,27.17721],[88.5406,27.18099],[88.54366,27.1834],[88.55092,27.18278],[88.55792,27.18568],[88.5679,27.18475],[88.58037,27.18868],[88.58369,27.18755],[88.58554,27.19024],[88.58705,27.18995],[88.58701,27.18698],[88.58942,27.18641],[88.59131,27.19126],[88.59312,27.19097],[88.59429,27.18771],[88.59795,27.18983],[88.60092,27.18573],[88.60365,27.18624],[88.61237,27.18181],[88.61845,27.18337],[88.62267,27.18223],[88.62233,27.17953],[88.62597,27.1803],[88.62624,27.17786],[88.63434,27.17235],[88.63516,27.16665],[88.63937,27.16471],[88.64756,27.16597],[88.65148,27.16484],[88.65295,27.16184],[88.6602,27.1604],[88.66294,27.16145],[88.66667,27.16845],[88.67741,27.17807],[88.68441,27.17988],[88.69135,27.17844],[88.70157,27.17399],[88.70334,27.17045],[88.70935,27.16739],[88.71589,27.16],[88.71776,27.14319],[88.72197,27.14179],[88.72373,27.13825],[88.72824,27.13629],[88.73882,27.13535],[88.749,27.14741],[88.75688,27.14812],[88.76027,27.15241],[88.75704,27.15868],[88.75715,27.16572],[88.76429,27.177],[88.77346,27.1823],[88.77953,27.18331],[88.78678,27.18186],[88.78802,27.18374],[88.78909,27.19402],[88.799,27.2077],[88.80313,27.21956],[88.80359,27.24826],[88.82827,27.25714],[88.8326,27.2625],[88.86718,27.26448],[88.87924,27.26107],[88.8805,27.26403],[88.88571,27.26775],[88.89757,27.27003],[88.89946,27.27407],[88.90306,27.27239],[88.90831,27.27801],[88.90838,27.28234],[88.91335,27.28931],[88.90876,27.30454],[88.91246,27.30773],[88.91532,27.31555],[88.9184,27.31848],[88.91977,27.3274],[88.91558,27.33098],[88.90494,27.32896],[88.89986,27.33309],[88.89439,27.33262],[88.89176,27.33861],[88.88305,27.34306],[88.88189,27.3466],[88.885,27.35116],[88.88166,27.35066],[88.88017,27.35258],[88.88091,27.36015],[88.87545,27.36022],[88.87458,27.3624],[88.86855,27.36438],[88.86317,27.36932],[88.86455,27.37905],[88.86104,27.38695],[88.85706,27.38457],[88.84523,27.38499],[88.83756,27.37941],[88.8361,27.38268],[88.8316,27.38571],[88.83076,27.39033],[88.82319,27.3907],[88.8206,27.39967],[88.81731,27.40242],[88.81214,27.4014],[88.81007,27.40495],[88.80646,27.40662],[88.80775,27.41121],[88.80478,27.41531],[88.80916,27.42364],[88.80125,27.42239],[88.8001,27.42647],[88.79648,27.42733],[88.7947,27.43006],[88.7918,27.43849],[88.79426,27.44008],[88.79651,27.4479],[88.78951,27.44691],[88.78258,27.44998],[88.78424,27.45889],[88.77945,27.46274],[88.77712,27.46927],[88.78358,27.47461],[88.78066,27.48168],[88.78685,27.48864],[88.78331,27.49546],[88.7831,27.50115],[88.78679,27.50381],[88.78564,27.50788],[88.79031,27.5154],[88.78799,27.5222],[88.79259,27.52458],[88.79266,27.52918],[88.79058,27.53192],[88.78234,27.52959],[88.77663,27.53318],[88.7728,27.54081],[88.77499,27.5443],[88.77291,27.54758],[88.77363,27.55461],[88.77157,27.55842],[88.76407,27.56448],[88.76503,27.56771],[88.76934,27.57118],[88.78178,27.56994],[88.78335,27.5729],[88.79098,27.57496],[88.79106,27.58011],[88.7881,27.58502],[88.79457,27.59035],[88.80435,27.59401],[88.80721,27.60156],[88.80905,27.60235],[88.80613,27.60942],[88.81175,27.61883],[88.80454,27.62379],[88.80837,27.63485],[88.81144,27.63697],[88.81556,27.64694],[88.8192,27.64662],[88.8225,27.6436],[88.83136,27.64646],[88.836,27.651],[88.83544,27.65371],[88.84314,27.65957],[88.84844,27.66762],[88.84766,27.67548],[88.84464,27.67688],[88.84438,27.67959],[88.84198,27.68124],[88.84764,27.69227],[88.84738,27.69525],[88.84265,27.70317],[88.8387,27.70349],[88.83783,27.70594],[88.84005,27.71132],[88.85288,27.7144],[88.85657,27.71679],[88.85449,27.71979],[88.85764,27.72625],[88.85682,27.7314],[88.85968,27.73841],[88.86521,27.74185],[88.86177,27.75435],[88.85966,27.75546],[88.85659,27.75361],[88.85482,27.75742],[88.85382,27.77016],[88.85661,27.77283],[88.85496,27.78341],[88.86221,27.79821],[88.8608,27.80472],[88.859,27.80583],[88.85911,27.8126],[88.85614,27.8167],[88.87214,27.82677],[88.88073,27.83017],[88.88325,27.83528],[88.88032,27.84155],[88.88171,27.85155],[88.88664,27.855],[88.88822,27.8585],[88.87986,27.86809],[88.87818,27.87678],[88.88302,27.89214],[88.87248,27.8996],[88.87255,27.90339],[88.86958,27.90803],[88.87065,27.91695],[88.86404,27.92245],[88.86079,27.92845],[88.85254,27.92748],[88.84375,27.93031],[88.83734,27.93012],[88.83879,27.94391],[88.84187,27.94549],[88.84323,27.9536],[88.84103,27.96771],[88.84392,27.99447],[88.83823,28.00077],[88.83752,28.0127],[88.83574,28.0157],[88.82363,28.021],[88.81661,28.0211],[88.81329,28.02303],[88.80307,28.0321],[88.79713,28.0422],[88.7938,28.04387],[88.79297,28.04902],[88.7872,28.05072],[88.78421,28.05428],[88.7775,28.05464],[88.77458,28.0628],[88.77129,28.06636],[88.75649,28.0763],[88.71831,28.07462],[88.71103,28.07768],[88.69696,28.07596],[88.69363,28.0779],[88.68509,28.07828],[88.68018,28.07644],[88.67797,28.07187],[88.67127,28.07276],[88.66644,28.07634],[88.66418,28.08801],[88.66146,28.08994],[88.65719,28.08999],[88.65452,28.09516],[88.64573,28.09933],[88.63474,28.11977],[88.62537,28.12638],[88.60953,28.129]],[[88.01834,27.22557],[88.01865,27.22557],[88.01865,27.2253],[88.01834,27.2253],[88.01834,27.22557]]]}}]}